OBJECT_NAME,OBJECT_ID,EPOCH,MEAN_MOTION,ECCENTRICITY,INCLINATION,RA_OF_ASC_NODE,ARG_OF_PERICENTER,MEAN_ANOMALY,EPHEMERIS_TYPE,CLASSIFICATION_TYPE,NORAD_CAT_ID,ELEMENT_SET_NO,REV_AT_EPOCH,BSTAR,MEAN_MOTION_DOT,MEAN_MOTION_DDOT
SCD 1,1993-009B,2026-06-18T11:41:12.041088,14.46119178,.0042029,24.9677,199.5517,151.4186,327.4321,0,U,22490,999,76130,.36453E-4,.32E-5,0
TECHSAT 1B (GO-32),1998-043D,2026-06-18T16:19:10.159680,14.24428642,.0001133,99.0067,162.4763,159.7014,200.4209,0,U,25397,999,45154,.35731E-4,.36E-6,0
SCD 2,1998-060A,2026-06-18T10:15:31.984992,14.45526320,.0016904,24.9958,64.5084,135.8400,25.0219,0,U,25504,999,46050,.4719E-4,.351E-5,0
DLR-TUBSAT,1999-029B,2026-06-18T11:08:58.405632,14.52427114,.0013963,98.6695,165.0107,351.3290,8.7662,0,U,25757,999,43343,.23789E-4,.48E-6,0
TERRA,1999-068A,2026-06-18T16:02:20.796000,14.61104199,.0001701,97.9456,219.1559,184.4026,274.5552,0,U,25994,999,40982,.71469E-4,.307E-5,0
MAROC-TUBSAT,2001-056D,2026-06-18T10:56:16.641024,13.70262475,.0020366,99.8082,346.3391,138.0935,250.4408,0,U,27004,999,22636,.79367E-5,-.4E-6,0
AQUA,2002-022A,2026-06-18T16:47:39.601824,14.62160080,.0001045,98.4277,139.0128,54.0926,24.0027,0,U,27424,999,28349,.12902E-3,.6E-5,0
SHIYAN-1 (SY-1),2004-012A,2026-06-18T16:25:09.473088,15.33792335,.0005447,97.8689,247.8499,27.6909,332.4622,0,U,28220,999,21132,.32801E-3,.1064E-3,0
AURA,2004-026A,2026-06-18T15:06:21.405024,14.61330957,.0001199,98.3417,126.0947,76.2546,283.8787,0,U,28376,999,16642,.13171E-3,.602E-5,0
IRS-P5 (CARTOSAT-1),2005-017A,2026-06-18T14:55:22.877184,14.91052689,.0002543,97.5306,192.6211,78.1261,282.0243,0,U,28649,999,14403,.1199E-3,.1134E-4,0
SINAH 1,2005-043D,2026-06-18T15:01:23.070144,14.64158440,.0013128,98.2863,303.9564,271.8133,88.1565,0,U,28893,999,10073,.54569E-4,.238E-5,0
RESURS-DK 1,2006-021A,2026-06-18T14:55:26.658048,15.13222982,.0006885,69.9330,335.8394,291.4308,68.6124,0,U,29228,999,10279,.99851E-4,.167E-4,0
ARIRANG-2 (KOMPSAT-2),2006-031A,2026-06-18T18:52:15.825792,14.64661475,.0015898,97.8303,354.1550,70.0214,300.9608,0,U,29268,999,6171,.75129E-4,.355E-5,0
LAPAN-TUBSAT,2007-001A,2026-06-18T17:39:32.103936,14.85949054,.0011994,98.1337,168.9947,174.3883,185.7468,0,U,29709,999,5138,-.99133E-6,-.66E-6,0
HAIYANG-1B,2007-010A,2026-06-18T16:23:35.634048,14.31027215,.0013111,98.3495,151.4702,191.7892,168.2986,0,U,31113,999,85,.41876E-4,.69E-6,0
COSMO-SKYMED 1,2007-023A,2026-06-18T17:44:18.290112,14.97106112,.0001414,97.8849,1.6077,98.4354,261.7028,0,U,31598,999,3002,.19998E-3,.2247E-4,0
TERRASAR-X,2007-026A,2026-06-17T14:05:11.304960,15.19150392,.00015603,97.4452,176.2866,90.2646,269.8767,0,U,31698,999,5328,.16539198E-4,.28E-5,0
WORLDVIEW-1 (WV-1),2007-041A,2026-06-18T16:05:44.956608,15.24280020,.0002097,97.3882,289.3928,16.8714,343.2593,0,U,32060,999,4310,.19664E-3,.4731E-4,0
YAOGAN-3,2007-055A,2026-06-18T17:43:03.690624,14.90783368,.0001818,97.8146,199.6006,79.3186,280.8237,0,U,32289,999,610,.79237E-4,.723E-5,0
COSMO-SKYMED 2,2007-059A,2026-06-18T18:45:04.207680,14.82156126,.0001355,97.8886,353.3561,87.7396,272.3973,0,U,32376,999,224,.42964E-4,.29E-5,0
RADARSAT-2,2007-061A,2026-06-18T17:12:38.684160,14.29981678,.0001311,98.5773,176.6279,84.1734,275.9597,0,U,32382,999,96617,-.59255E-5,-.59E-6,0
CARTOSAT-2A,2008-021A,2026-06-18T17:42:09.898848,14.79239753,.0013189,97.7627,218.3934,104.0869,256.1810,0,U,32783,999,97903,.32606E-4,.192E-5,0
HUANJING 1A (HJ-1A),2008-041A,2026-06-18T17:12:42.561792,14.83988993,.0020116,97.6682,155.4965,130.0719,230.2264,0,U,33320,999,95863,.13667E-3,.109E-4,0
HUANJING 1B (HJ-1B),2008-041B,2026-06-18T18:06:18.726624,14.83318642,.003616,97.6518,158.6993,175.7206,184.4324,0,U,33321,999,95864,.49471E-4,.357E-5,0
GEOEYE 1,2008-042A,2026-06-18T15:42:54.136800,14.64726952,.0005354,98.1236,243.5675,66.1425,294.0338,0,U,33331,999,95036,.76395E-4,.359E-5,0
THEOS,2008-049A,2026-06-18T17:31:34.140864,14.20132928,.0001213,98.5566,226.9641,79.1213,281.0100,0,U,33396,999,91818,-.58138E-7,-.42E-6,0
COSMO-SKYMED 3,2008-054A,2026-06-18T17:40:56.750016,15.06962172,.0014034,97.8280,28.3324,261.0675,98.8963,0,U,33412,999,95717,.19919E-3,.2919E-4,0
YAOGAN-4,2008-061A,2026-06-18T07:32:06.775584,14.83201968,.0015685,97.9308,102.8160,69.0904,291.1987,0,U,33446,999,94583,.10232E-3,.783E-5,0
GOSAT (IBUKI),2009-002A,2026-06-18T13:41:03.698880,14.67540830,.0001567,98.0892,280.6341,85.3924,274.7460,0,U,33492,999,93166,.16271E-3,.875E-5,0
DEIMOS-1,2009-041A,2026-06-18T16:17:08.002176,14.75239621,.0001708,97.7405,326.8410,128.8315,231.3048,0,U,35681,999,90710,.10666E-3,.674E-5,0
DUBAISAT-1,2009-041B,2026-06-18T09:04:08.450112,14.75124116,.0011619,98.0054,302.6225,70.3532,289.8930,0,U,35682,999,90527,.94288E-4,.586E-5,0
