SCD 1                   
1 22490U 93009B   26169.48694492  .00000320  00000+0  36453-4 0  9997
2 22490  24.9677 199.5517 0042029 151.4186 327.4321 14.46119178761305
TECHSAT 1B (GO-32)      
1 25397U 98043D   26169.67997870  .00000036  00000+0  35731-4 0  9998
2 25397  99.0067 162.4763 0001133 159.7014 200.4209 14.24428642451546
SCD 2                   
1 25504U 98060A   26169.42745353  .00000351  00000+0  47190-4 0  9999
2 25504  24.9958  64.5084 0016904 135.8400  25.0219 14.45526320460509
DLR-TUBSAT              
1 25757U 99029B   26169.46456488  .00000048  00000+0  23789-4 0  9998
2 25757  98.6695 165.0107 0013963 351.3290   8.7662 14.52427114433433
TERRA                   
1 25994U 99068A   26169.66829625  .00000307  00000+0  71469-4 0  9999
2 25994  97.9456 219.1559 0001701 184.4026 274.5552 14.61104199409826
MAROC-TUBSAT            
1 27004U 01056D   26169.45574816 -.00000040  00000+0  79367-5 0  9990
2 27004  99.8082 346.3391 0020366 138.0935 250.4408 13.70262475226365
AQUA                    
1 27424U 02022A   26169.69976391  .00000600  00000+0  12902-3 0  9991
2 27424  98.4277 139.0128 0001045  54.0926  24.0027 14.62160080283497
SHIYAN-1 (SY-1)         
1 28220U 04012A   26169.68413742  .00010640  00000+0  32801-3 0  9997
2 28220  97.8689 247.8499 0005447  27.6909 332.4622 15.33792335211321
AURA                    
1 28376U 04026A   26169.62941441  .00000602  00000+0  13171-3 0  9996
2 28376  98.3417 126.0947 0001199  76.2546 283.8787 14.61330957166420
IRS-P5 (CARTOSAT-1)     
1 28649U 05017A   26169.62179256  .00001134  00000+0  11990-3 0  9995
2 28649  97.5306 192.6211 0002543  78.1261 282.0243 14.91052689144030
SINAH 1                 
1 28893U 05043D   26169.62596146  .00000238  00000+0  54569-4 0  9990
2 28893  98.2863 303.9564 0013128 271.8133  88.1565 14.64158440100739
RESURS-DK 1             
1 29228U 06021A   26169.62183632  .00001670  00000+0  99851-4 0  9996
2 29228  69.9330 335.8394 0006885 291.4308  68.6124 15.13222982102795
ARIRANG-2 (KOMPSAT-2)   
1 29268U 06031A   26169.78629428  .00000355  00000+0  75129-4 0  9997
2 29268  97.8303 354.1550 0015898  70.0214 300.9608 14.64661475 61712
LAPAN-TUBSAT            
1 29709U 07001A   26169.73578824 -.00000066  00000+0 -99133-6 0  9997
2 29709  98.1337 168.9947 0011994 174.3883 185.7468 14.85949054 51387
HAIYANG-1B              
1 31113U 07010A   26169.68305132  .00000069  00000+0  41876-4 0  9993
2 31113  98.3495 151.4702 0013111 191.7892 168.2986 14.31027215   852
COSMO-SKYMED 1          
1 31598U 07023A   26169.73910058  .00002247  00000+0  19998-3 0  9998
2 31598  97.8849   1.6077 0001414  98.4354 261.7028 14.97106112 30020
TERRASAR-X              
1 31698U 07026A   26168.58693640  .00000280  00000+0  16539-4 0  9993
2 31698  97.4452 176.2866 0001560  90.2646 269.8767 15.19150392 53284
WORLDVIEW-1 (WV-1)      
1 32060U 07041A   26169.67065922  .00004731  00000+0  19664-3 0  9997
2 32060  97.3882 289.3928 0002097  16.8714 343.2593 15.24280020 43107
YAOGAN-3                
1 32289U 07055A   26169.73823716  .00000723  00000+0  79237-4 0  9995
2 32289  97.8146 199.6006 0001818  79.3186 280.8237 14.90783368  6100
COSMO-SKYMED 2          
1 32376U 07059A   26169.78129870  .00000290  00000+0  42964-4 0  9997
2 32376  97.8886 353.3561 0001355  87.7396 272.3973 14.82156126  2246
RADARSAT-2              
1 32382U 07061A   26169.71711440 -.00000059  00000+0 -59255-5 0  9997
2 32382  98.5773 176.6279 0001311  84.1734 275.9597 14.29981678966178
CARTOSAT-2A             
1 32783U 08021A   26169.73761457  .00000192  00000+0  32606-4 0  9990
2 32783  97.7627 218.3934 0013189 104.0869 256.1810 14.79239753979034
HUANJING 1A (HJ-1A)     
1 33320U 08041A   26169.71715928  .00001090  00000+0  13667-3 0  9993
2 33320  97.6682 155.4965 0020116 130.0719 230.2264 14.83988993958639
HUANJING 1B (HJ-1B)     
1 33321U 08041B   26169.75438341  .00000357  00000+0  49471-4 0  9997
2 33321  97.6518 158.6993 0036160 175.7206 184.4324 14.83318642958643
GEOEYE 1                
1 33331U 08042A   26169.65479325  .00000359  00000+0  76395-4 0  9992
2 33331  98.1236 243.5675 0005354  66.1425 294.0338 14.64726952950365
THEOS                   
1 33396U 08049A   26169.73025626 -.00000042  00000+0 -58138-7 0  9999
2 33396  98.5566 226.9641 0001213  79.1213 281.0100 14.20132928918186
COSMO-SKYMED 3          
1 33412U 08054A   26169.73676794  .00002919  00000+0  19919-3 0  9995
2 33412  97.8280  28.3324 0014034 261.0675  98.8963 15.06962172957171
YAOGAN-4                
1 33446U 08061A   26169.31396731  .00000783  00000+0  10232-3 0  9990
2 33446  97.9308 102.8160 0015685  69.0904 291.1987 14.83201968945837
GOSAT (IBUKI)           
1 33492U 09002A   26169.57018170  .00000875  00000+0  16271-3 0  9994
2 33492  98.0892 280.6341 0001567  85.3924 274.7460 14.67540830931666
DEIMOS-1                
1 35681U 09041A   26169.67856484  .00000674  00000+0  10666-3 0  9997
2 35681  97.7405 326.8410 0001708 128.8315 231.3048 14.75239621907103
DUBAISAT-1              
1 35682U 09041B   26169.37787558  .00000586  00000+0  94288-4 0  9995
2 35682  98.0054 302.6225 0011619  70.3532 289.8930 14.75124116905274
